{
  "type": "FeatureCollection",
  "features": [
    {
      "type": "Feature",
      "properties": {
        "norad_id": 34765,
        "name": "IRIDIUM 33 DEB",
        "group": "iridium-33-debris",
        "lat": -11.104023194746478,
        "lon": 28.426634993556963,
        "alt_km": 772.4330119138931,
        "timestamp": "2025-12-21T03:56:51.218328+00:00",
        "meta_object_name": "IRIDIUM 33 DEB",
        "meta_object_id": "1997-051LJ",
        "meta_epoch": "2025-12-18T13:21:25.941600",
        "meta_mean_motion": 14.40479279,
        "meta_eccentricity": 0.00160914,
        "meta_inclination": 86.3386,
        "meta_ra_of_asc_node": 30.2656,
        "meta_arg_of_pericenter": 191.4295,
        "meta_mean_anomaly": 322.071,
        "meta_ephemeris_type": 0,
        "meta_classification_type": "U",
        "meta_norad_cat_id": 34765,
        "meta_element_set_no": 999,
        "meta_rev_at_epoch": 87697,
        "meta_bstar": 0.00029987235,
        "meta_mean_motion_dot": 9.74e-06,
        "meta_mean_motion_ddot": 0,
        "tle_line1": "1 34765U 97051LJ  25352.55655025  .00000974  00000+0  29987-3 0  9994",
        "tle_line2": "2 34765  86.3386  30.2656 0016091 191.4295 322.0710 14.40479279876970"
      },
      "geometry": {
        "type": "Point",
        "coordinates": [
          28.426634993556963,
          -11.104023194746478
        ]
      }
    },
    {
      "type": "Feature",
      "properties": {
        "norad_id": 34833,
        "name": "IRIDIUM 33 DEB",
        "group": "iridium-33-debris",
        "lat": 83.20608633120237,
        "lon": -164.60623754529854,
        "alt_km": 696.3305744110539,
        "timestamp": "2025-12-21T03:56:51.218337+00:00",
        "meta_object_name": "IRIDIUM 33 DEB",
        "meta_object_id": "1997-051MH",
        "meta_epoch": "2025-12-20T14:58:25.112064",
        "meta_mean_motion": 14.52418864,
        "meta_eccentricity": 0.002147,
        "meta_inclination": 86.393,
        "meta_ra_of_asc_node": 47.5965,
        "meta_arg_of_pericenter": 74.3992,
        "meta_mean_anomaly": 76.5331,
        "meta_ephemeris_type": 0,
        "meta_classification_type": "U",
        "meta_norad_cat_id": 34833,
        "meta_element_set_no": 999,
        "meta_rev_at_epoch": 87829,
        "meta_bstar": 0.00044225,
        "meta_mean_motion_dot": 1.828e-05,
        "meta_mean_motion_ddot": 0,
        "tle_line1": "1 34833U 97051MH  25354.62390176  .00001828  00000+0  44225-3 0  9994",
        "tle_line2": "2 34833  86.3930  47.5965 0021470  74.3992  76.5331 14.52418864878298"
      },
      "geometry": {
        "type": "Point",
        "coordinates": [
          -164.60623754529854,
          83.20608633120237
        ]
      }
    },
    {
      "type": "Feature",
      "properties": {
        "norad_id": 34870,
        "name": "IRIDIUM 33 DEB",
        "group": "iridium-33-debris",
        "lat": 77.12060596745596,
        "lon": -33.38179879033334,
        "alt_km": 629.8402571507113,
        "timestamp": "2025-12-21T03:56:51.218346+00:00",
        "meta_object_name": "IRIDIUM 33 DEB",
        "meta_object_id": "1997-051MQ",
        "meta_epoch": "2025-12-17T15:48:12.189024",
        "meta_mean_motion": 14.76525212,
        "meta_eccentricity": 0.00169592,
        "meta_inclination": 86.3102,
        "meta_ra_of_asc_node": 311.8309,
        "meta_arg_of_pericenter": 164.6796,
        "meta_mean_anomaly": 8.9227,
        "meta_ephemeris_type": 0,
        "meta_classification_type": "U",
        "meta_norad_cat_id": 34870,
        "meta_element_set_no": 999,
        "meta_rev_at_epoch": 88983,
        "meta_bstar": 0.0011120343,
        "meta_mean_motion_dot": 7.793e-05,
        "meta_mean_motion_ddot": 0,
        "tle_line1": "1 34870U 97051MQ  25351.65847441  .00007793  00000+0  11120-2 0  9991",
        "tle_line2": "2 34870  86.3102 311.8309 0016959 164.6796   8.9227 14.76525212889837"
      },
      "geometry": {
        "type": "Point",
        "coordinates": [
          -33.38179879033334,
          77.12060596745596
        ]
      }
    },
    {
      "type": "Feature",
      "properties": {
        "norad_id": 34896,
        "name": "IRIDIUM 33 DEB",
        "group": "iridium-33-debris",
        "lat": -29.59890559698915,
        "lon": -39.18383663708411,
        "alt_km": 693.2936154732233,
        "timestamp": "2025-12-21T03:56:51.218355+00:00",
        "meta_object_name": "IRIDIUM 33 DEB",
        "meta_object_id": "1997-051MY",
        "meta_epoch": "2025-12-17T17:20:43.717344",
        "meta_mean_motion": 14.6632638,
        "meta_eccentricity": 0.00248916,
        "meta_inclination": 86.3286,
        "meta_ra_of_asc_node": 324.4498,
        "meta_arg_of_pericenter": 196.3048,
        "meta_mean_anomaly": 337.3904,
        "meta_ephemeris_type": 0,
        "meta_classification_type": "U",
        "meta_norad_cat_id": 34896,
        "meta_element_set_no": 999,
        "meta_rev_at_epoch": 87692,
        "meta_bstar": 0.00069874419,
        "meta_mean_motion_dot": 3.895e-05,
        "meta_mean_motion_ddot": 0,
        "tle_line1": "1 34896U 97051MY  25351.72272821  .00003895  00000+0  69874-3 0  9990",
        "tle_line2": "2 34896  86.3286 324.4498 0024891 196.3048 337.3904 14.66326380876924"
      },
      "geometry": {
        "type": "Point",
        "coordinates": [
          -39.18383663708411,
          -29.59890559698915
        ]
      }
    },
    {
      "type": "Feature",
      "properties": {
        "norad_id": 34926,
        "name": "IRIDIUM 33 DEB",
        "group": "iridium-33-debris",
        "lat": 62.24075757738381,
        "lon": 11.75254937613845,
        "alt_km": 753.4028038785245,
        "timestamp": "2025-12-21T03:56:51.218364+00:00",
        "meta_object_name": "IRIDIUM 33 DEB",
        "meta_object_id": "1997-051NF",
        "meta_epoch": "2025-12-20T01:29:58.203744",
        "meta_mean_motion": 14.54723166,
        "meta_eccentricity": 0.00745564,
        "meta_inclination": 86.1315,
        "meta_ra_of_asc_node": 4.8773,
        "meta_arg_of_pericenter": 267.4346,
        "meta_mean_anomaly": 147.2463,
        "meta_ephemeris_type": 0,
        "meta_classification_type": "U",
        "meta_norad_cat_id": 34926,
        "meta_element_set_no": 999,
        "meta_rev_at_epoch": 86563,
        "meta_bstar": 0.0033633995,
        "meta_mean_motion_dot": 0.00014979,
        "meta_mean_motion_ddot": 0,
        "tle_line1": "1 34926U 97051NF  25354.06247921  .00014979  00000+0  33634-2 0  9996",
        "tle_line2": "2 34926  86.1315   4.8773 0074556 267.4346 147.2463 14.54723166865632"
      },
      "geometry": {
        "type": "Point",
        "coordinates": [
          11.75254937613845,
          62.24075757738381
        ]
      }
    },
    {
      "type": "Feature",
      "properties": {
        "norad_id": 34985,
        "name": "IRIDIUM 33 DEB",
        "group": "iridium-33-debris",
        "lat": 13.77067709198893,
        "lon": -127.60590282795745,
        "alt_km": 738.9958737265124,
        "timestamp": "2025-12-21T03:56:51.218373+00:00",
        "meta_object_name": "IRIDIUM 33 DEB",
        "meta_object_id": "1997-051NR",
        "meta_epoch": "2025-12-20T10:36:23.037120",
        "meta_mean_motion": 14.42039348,
        "meta_eccentricity": 0.00215609,
        "meta_inclination": 86.369,
        "meta_ra_of_asc_node": 53.594,
        "meta_arg_of_pericenter": 194.0742,
        "meta_mean_anomaly": 183.5086,
        "meta_ephemeris_type": 0,
        "meta_classification_type": "U",
        "meta_norad_cat_id": 34985,
        "meta_element_set_no": 999,
        "meta_rev_at_epoch": 87286,
        "meta_bstar": 0.00043685273,
        "meta_mean_motion_dot": 1.457e-05,
        "meta_mean_motion_ddot": 0,
        "tle_line1": "1 34985U 97051NR  25354.44193330  .00001457  00000+0  43685-3 0  9992",
        "tle_line2": "2 34985  86.3690  53.5940 0021560 194.0742 183.5086 14.42039348872860"
      },
      "geometry": {
        "type": "Point",
        "coordinates": [
          -127.60590282795745,
          13.77067709198893
        ]
      }
    },
    {
      "type": "Feature",
      "properties": {
        "norad_id": 35051,
        "name": "IRIDIUM 33 DEB",
        "group": "iridium-33-debris",
        "lat": -85.88644413796462,
        "lon": -111.43553536198907,
        "alt_km": 747.7944415794245,
        "timestamp": "2025-12-21T03:56:51.218382+00:00",
        "meta_object_name": "IRIDIUM 33 DEB",
        "meta_object_id": "1997-051NX",
        "meta_epoch": "2025-12-19T07:34:48.667584",
        "meta_mean_motion": 14.47625509,
        "meta_eccentricity": 0.0010483,
        "meta_inclination": 86.3238,
        "meta_ra_of_asc_node": 5.9957,
        "meta_arg_of_pericenter": 72.9006,
        "meta_mean_anomaly": 287.3345,
        "meta_ephemeris_type": 0,
        "meta_classification_type": "U",
        "meta_norad_cat_id": 35051,
        "meta_element_set_no": 999,
        "meta_rev_at_epoch": 87091,
        "meta_bstar": 0.00045048,
        "meta_mean_motion_dot": 1.68e-05,
        "meta_mean_motion_ddot": 0,
        "tle_line1": "1 35051U 97051NX  25353.31584106  .00001680  00000+0  45048-3 0  9990",
        "tle_line2": "2 35051  86.3238   5.9957 0010483  72.9006 287.3345 14.47625509870911"
      },
      "geometry": {
        "type": "Point",
        "coordinates": [
          -111.43553536198907,
          -85.88644413796462
        ]
      }
    }
  ]
}